[Satellite]
VERSION=1.1
NAME=O3B PFM
NICKNAME=O3B PFM
TLE1=1 39191U 13031D   17186.18419372 -.00000027  00000-0  00000-0 0  9999
TLE2=2 39191   0.0451  14.2763 0003916  65.0536 280.7127  5.00116020 73576
